JILIN-1 GAOFEN 3A       
1 44312U 19032C   26167.23783113  .00009314  00000+0  29928-3 0  9998
2 44312  44.9755   2.1611 0006465 291.3222  68.6972 15.32611777387694
WT 1B                   
1 44316U 19032G   26167.15292275  .00008737  00000+0  33211-3 0  9995
2 44316  44.9727  66.5831 0009875 243.6820 116.3049 15.27167864386925
PROX-1                  
1 44339U 19036A   26167.18701798  .00010486  00000+0  10169-2 0  9992
2 44339  23.9937 120.9336 0005680  25.8982 334.1802 14.90587417373320
NPSAT1                  
1 44340U 19036B   26166.83164085  .00004022  00000+0  55417-3 0  9992
2 44340  23.9979 226.5932 0007300 190.6439 169.3903 14.74569671372291
FORMOSAT 7-3            
1 44343U 19036E   26166.86201674  .00003333  00000+0  18021-3 0  9998
2 44343  23.9974 187.6625 0000336 236.4485 123.5987 15.09792587383049
FORMOSAT 7-1            
1 44349U 19036L   26165.97992302  .00002540  00000+0  19221-3 0  9992
2 44349  23.9975  47.2732 0000940 136.6905 223.3670 14.96497002384324
FORMOSAT 7-4            
1 44350U 19036M   26167.13591205  .00002272  00000+0  16919-3 0  9994
2 44350  23.9977 101.5852 0001192 163.9496 196.1043 14.96494412383910
FORMOSAT 7-2            
1 44351U 19036N   26167.29161057  .00002078  00000+0  15254-3 0  9995
2 44351  23.9963 154.8526 0000791 149.0036 211.0511 14.96495644383458
FORMOSAT 7-6            
1 44353U 19036Q   26167.15802909  .00002409  00000+0  18096-3 0  9995
2 44353  23.9990 336.5697 0001426  83.8974 276.1689 14.96508065381661
FORMOSAT 7-5            
1 44358U 19036V   26167.00193302  .00002356  00000+0  17639-3 0  9997
2 44358  23.9977 276.3744 0000600 114.0022 246.0542 14.96514487382175
METEOR-M2 2             
1 44387U 19038A   26167.26122610  .00000085  00000+0  56808-4 0  9992
2 44387  98.9137 154.5330 0002118  49.3401 310.7962 14.24365910361169
GLOBAL-4                
1 44499U 19054E   26166.92835639  .00042843  00000+0  43878-3 0  9998
2 44499  45.0053 243.6644 0006145 328.3536  31.6991 15.64312293380167
ZY-1 02D                
1 44528U 19059A   26167.23287385 -.00000080  00000+0 -13307-4 0  9994
2 44528  98.3193 228.7512 0002435 108.2928 251.8523 14.35458803354200
TAURUS-1 (JINNIUZUO 1)  
1 44530U 19059C   26167.29117521  .00005664  00000+0  90861-3 0  9997
2 44530  98.6410 332.0631 0007433 319.7873  40.2782 14.72089761358519
ZHUHAI-1 03B            
1 44536U 19060C   26167.34627542  .00026079  00000+0  40314-3 0  9991
2 44536  97.5527 325.0658 0007558 321.5869  38.4845 15.54047354376193
ZHUHAI-1 03D            
1 44538U 19060E   26167.31976983  .00026176  00000+0  47242-3 0  9991
2 44538  97.5394 317.1668 0006668 304.3585  55.7034 15.49705765375940
ZHUHAI-1 03E            
1 44539U 19060F   26167.33447873  .00013943  00000+0  33942-3 0  9995
2 44539  97.5612 317.2516 0005996  36.2390 323.9262 15.41042060375638
GAOFEN-7                
1 44703U 19072A   26167.27809022  .00003471  00000+0  15768-3 0  9993
2 44703  97.2427 228.7794 0018879  44.1955 316.0785 15.21256642367506
JILIN-1 GAOFEN 2A       
1 44777U 19075A   26167.29002880  .00011864  00000+0  30617-3 0  9991
2 44777  97.4971 251.0587 0007493  90.0488 270.1616 15.39288460364741
NINGXIA-1 1             
1 44779U 19076A   26167.32648332 -.00000083  00000+0  30550-4 0  9995
2 44779  45.0037 183.6984 0010563 159.2966 200.8298 14.02038111337737
NINGXIA-1 5             
1 44783U 19076E   26167.33980469  .00000087  00000+0  14112-3 0  9999
2 44783  45.0034 182.9805 0010005 148.7207 211.4224 14.02087037337654
KL-ALPHA A              
1 44785U 19077A   26167.23476819  .00000047  00000+0  48846-4 0  9998
2 44785  88.9255 222.6688 0013208 108.2320 252.0272 13.56042869325601
CARTOSAT-3              
1 44804U 19081A   26167.30111741  .00002721  00000+0  13201-3 0  9990
2 44804  97.4307 229.1822 0013181 151.4316 208.7644 15.19276517363336
JILIN-1 GAOFEN 2B       
1 44836U 19086A   26167.29179581  .00005069  00000+0  23330-3 0  9996
2 44836  97.4885 239.2880 0012927 327.7736  32.2708 15.20703174360355
TIANQIN 1 (CAS-6)       
1 44879U 19093A   26167.28630198  .00001527  00000+0  14328-3 0  9998
2 44879  97.7812 251.1326 0012217  60.0815 300.1617 14.95429752351916
ETRSS-1                 
1 44880U 19093B   26167.29338243  .00002793  00000+0  25482-3 0  9996
2 44880  97.7825 251.5978 0012259  60.4307 299.8134 14.95862227351922
TIANYAN 01              
1 44881U 19093C   26167.23699984  .00001296  00000+0  15222-3 0  9991
2 44881  97.7539 239.4921 0015129  89.7707 270.5243 14.86520887351273
TIANYAN 02              
1 44882U 19093D   26167.25530956  .00005139  00000+0  36369-3 0  9992
2 44882  97.7947 262.0360 0014249  33.2470 326.9648 15.05220238352476
