OBJECT_NAME,OBJECT_ID,EPOCH,MEAN_MOTION,ECCENTRICITY,INCLINATION,RA_OF_ASC_NODE,ARG_OF_PERICENTER,MEAN_ANOMALY,EPHEMERIS_TYPE,CLASSIFICATION_TYPE,NORAD_CAT_ID,ELEMENT_SET_NO,REV_AT_EPOCH,BSTAR,MEAN_MOTION_DOT,MEAN_MOTION_DDOT
JILIN-1 GAOFEN 3A,2019-032C,2026-06-16T05:42:28.609632,15.32611777,.0006465,44.9755,2.1611,291.3222,68.6972,0,U,44312,999,38769,.2992838E-3,.9314E-4,0
WT 1B,2019-032G,2026-06-16T03:40:12.525600,15.27167864,.00098752,44.9727,66.5831,243.6820,116.3049,0,U,44316,999,38692,.33211283E-3,.8737E-4,0
PROX-1,2019-036A,2026-06-16T04:29:18.353472,14.90587417,.00056807,23.9937,120.9336,25.8982,334.1802,0,U,44339,999,37332,.10169228E-2,.10486E-3,0
NPSAT1,2019-036B,2026-06-15T19:57:33.769440,14.74569671,.00073005,23.9979,226.5932,190.6439,169.3903,0,U,44340,999,37229,.55416977E-3,.4022E-4,0
FORMOSAT 7-3,2019-036E,2026-06-15T20:41:18.246336,15.09792587,.00003363,23.9974,187.6625,236.4485,123.5987,0,U,44343,999,38304,.18021069E-3,.3333E-4,0
FORMOSAT 7-1,2019-036L,2026-06-14T23:31:05.348928,14.96497002,.00009408,23.9975,47.2732,136.6905,223.3670,0,U,44349,999,38432,.19220588E-3,.254E-4,0
FORMOSAT 7-4,2019-036M,2026-06-16T03:15:42.801120,14.96494412,.00011926,23.9977,101.5852,163.9496,196.1043,0,U,44350,999,38391,.16919047E-3,.2272E-4,0
FORMOSAT 7-2,2019-036N,2026-06-16T06:59:55.153248,14.96495644,.00007915,23.9963,154.8526,149.0036,211.0511,0,U,44351,999,38345,.1525407E-3,.2078E-4,0
FORMOSAT 7-6,2019-036Q,2026-06-16T03:47:33.713376,14.96508065,.0001426,23.9990,336.5697,83.8974,276.1689,0,U,44353,999,38166,.18096175E-3,.2409E-4,0
FORMOSAT 7-5,2019-036V,2026-06-16T00:02:47.012928,14.96514487,.00006006,23.9977,276.3744,114.0022,246.0542,0,U,44358,999,38217,.17638689E-3,.2356E-4,0
METEOR-M2 2,2019-038A,2026-06-16T06:16:09.935040,14.24365910,.00021185,98.9137,154.5330,49.3401,310.7962,0,U,44387,999,36116,.5680764E-4,.85E-6,0
GLOBAL-4,2019-054E,2026-06-15T22:16:49.992096,15.64312293,.0006145,45.0053,243.6644,328.3536,31.6991,0,U,44499,999,38016,.43878E-3,.42843E-3,0
ZY-1 02D,2019-059A,2026-06-16T05:35:20.300640,14.35458803,.00024353,98.3193,228.7512,108.2928,251.8523,0,U,44528,999,35420,-.13306965E-4,-.8E-6,0
TAURUS-1 (JINNIUZUO 1),2019-059C,2026-06-16T06:59:17.538144,14.72089761,.00074339,98.6410,332.0631,319.7873,40.2782,0,U,44530,999,35851,.90861091E-3,.5664E-4,0
ZHUHAI-1 03B,2019-060C,2026-06-16T08:18:38.196288,15.54047354,.00075585,97.5527,325.0658,321.5869,38.4845,0,U,44536,999,37619,.40313646E-3,.26079E-3,0
ZHUHAI-1 03D,2019-060E,2026-06-16T07:40:28.113312,15.49705765,.00066683,97.5394,317.1668,304.3585,55.7034,0,U,44538,999,37594,.47241716E-3,.26176E-3,0
ZHUHAI-1 03E,2019-060F,2026-06-16T08:01:38.962272,15.41042060,.0005996,97.5612,317.2516,36.2390,323.9262,0,U,44539,999,37563,.33941999E-3,.13943E-3,0
GAOFEN-7,2019-072A,2026-06-16T06:40:26.995008,15.21256642,.00188792,97.2427,228.7794,44.1955,316.0785,0,U,44703,999,36750,.15767647E-3,.3471E-4,0
JILIN-1 GAOFEN 2A,2019-075A,2026-06-16T06:57:38.488320,15.39288460,.00074936,97.4971,251.0587,90.0488,270.1616,0,U,44777,999,36474,.30617263E-3,.11864E-3,0
NINGXIA-1 1,2019-076A,2026-06-16T07:50:08.158848,14.02038111,.00105638,45.0037,183.6984,159.2966,200.8298,0,U,44779,999,33773,.30550449E-4,-.83E-6,0
NINGXIA-1 5,2019-076E,2026-06-16T08:09:19.125216,14.02087037,.00100051,45.0034,182.9805,148.7207,211.4224,0,U,44783,999,33765,.14112469E-3,.87E-6,0
KL-ALPHA A,2019-077A,2026-06-16T05:38:03.971616,13.56042869,.00132084,88.9255,222.6688,108.2320,252.0272,0,U,44785,999,32560,.48846452E-4,.47E-6,0
CARTOSAT-3,2019-081A,2026-06-16T07:13:36.544224,15.19276517,.00131812,97.4307,229.1822,151.4316,208.7644,0,U,44804,999,36333,.13200536E-3,.2721E-4,0
JILIN-1 GAOFEN 2B,2019-086A,2026-06-16T07:00:11.157984,15.20703174,.00129278,97.4885,239.2880,327.7736,32.2708,0,U,44836,999,36035,.23330138E-3,.5069E-4,0
TIANQIN 1 (CAS-6),2019-093A,2026-06-16T06:52:16.491072,14.95429752,.00122177,97.7812,251.1326,60.0815,300.1617,0,U,44879,999,35191,.14328257E-3,.1527E-4,0
ETRSS-1,2019-093B,2026-06-16T07:02:28.241952,14.95862227,.00122592,97.7825,251.5978,60.4307,299.8134,0,U,44880,999,35192,.25482437E-3,.2793E-4,0
TIANYAN 01,2019-093C,2026-06-16T05:41:16.786176,14.86520887,.0015129,97.7539,239.4921,89.7707,270.5243,0,U,44881,999,35127,.15222403E-3,.1296E-4,0
TIANYAN 02,2019-093D,2026-06-16T06:07:38.745984,15.05220238,.00142493,97.7947,262.0360,33.2470,326.9648,0,U,44882,999,35247,.36369435E-3,.5139E-4,0
